[{"OBJECT_NAME":"STARLINK-35065","OBJECT_ID":"2025-194H","EPOCH":"2026-03-09T13:12:01.205280","MEAN_MOTION":15.05652006,"ECCENTRICITY":0.00021494,"INCLINATION":97.6028,"RA_OF_ASC_NODE":284.2088,"ARG_OF_PERICENTER":69.3419,"MEAN_ANOMALY":290.8038,"EPHEMERIS_TYPE":0,"CLASSIFICATION_TYPE":"U","NORAD_CAT_ID":65441,"ELEMENT_SET_NO":999,"REV_AT_EPOCH":2962,"BSTAR":0.00045294617,"MEAN_MOTION_DOT":6.481e-5,"MEAN_MOTION_DDOT":0},{"OBJECT_NAME":"FENGYUN 1C DEB","OBJECT_ID":"1999-025CMP","EPOCH":"2026-03-08T08:37:00.789888","MEAN_MOTION":14.96815474,"ECCENTRICITY":0.01497126,"INCLINATION":98.9176,"RA_OF_ASC_NODE":115.7276,"ARG_OF_PERICENTER":148.4975,"MEAN_ANOMALY":212.5316,"EPHEMERIS_TYPE":0,"CLASSIFICATION_TYPE":"U","NORAD_CAT_ID":31938,"ELEMENT_SET_NO":999,"REV_AT_EPOCH":409,"BSTAR":0.00073670691,"MEAN_MOTION_DOT":0.00010536,"MEAN_MOTION_DDOT":0}]
